 Automated mail xmit by MAIL_REQUEST, PID= 129626 Thu Feb 22 22:18:29 2018
++++++++++++++++++++++++++++++++ (part 1 of 1)  +++++++++++++++++++++++++++++++

*******************************************************************************
 Revised: Nov 09, 2017     Spitzer Space Telescope (SST) / (Sun)            -79 
                              http://spitzer.caltech.edu/

 Spitzer Space Telescope 
  Launched: Aug 25, 2003
  Renamed : Dec 18, 2003 (formerly "SIRTF": Space Infrared Telescope Facility)

 EXTENDED MISSION (2009-present):
  Cryogen depletion is expected to occur in April 2009. A 2-year extended 
  "warm" mission will continue operating the 3.6 and 4.5 micron channels on the
  IRAC instrument with expected sensitivity unchanged from performance in the 
  cryogenic mission. The longer wavelength IRAC channels (5.6 and 8.0 microns) 
  and the MIPS and IRS instruments will be unavailable.

 PRIME MISSION (2003-2009):
  Spitzer will obtain images and spectra by detecting infrared (heat) energy, 
  having wavelengths of 3 and 180 microns, radiated by objects in space.  Most
  of this infrared radiation is blocked by the Earth's atmosphere and cannot be
  observed from the ground.  The telescope must be cooled to near absolute zero
  (-459 degrees F, or -273 degrees Celsius) to record infrared from distant 
  regions of space without interference from the telescope's own heat.

 SPACECRAFT:
   0.85-meter telescope 
   3 cryogenically-cooled science instruments
   2 solar panels composed of 392 solar cells, producing 427 Watts. 
   Each solar cell is 5.5 x 6.5 cm. Each panel is 50% covered by solar cells,
    and 50% covered by optical reflectors to reduce panel temp to 330 K.
   Spitzer cannot point more than 120 degrees away from the sun and maintain
    adequate power levels.

 SPACECRAFT TRAJECTORY:
   Post-launch trajectory "sst_030825_171106_220101"

   This orbit solution is based on 2-way doppler tracking data through 
   2017-Oct-30. The trajectory after that date is the nominal prediction.
*******************************************************************************
 
 
*******************************************************************************
Ephemeris / MAIL_REQUEST Thu Feb 22 22:18:28 2018 Pasadena, USA  / Horizons    
*******************************************************************************
Target body name: Spitzer Space Telescope (-79)   {source: sst_030825_171106_220101}
Center body name: Earth (399)                     {source: sst_030825_171106_220101}
Center-site name: GEOCENTRIC
*******************************************************************************
Start time      : A.D. 2013-Jun-01 12:00:00.0000 UT      
Stop  time      : A.D. 2017-Nov-02 10:00:00.0000 UT      
Step-size       : 1440 minutes
*******************************************************************************
Target pole/equ : No model available
Target radii    : (unavailable)                                                
Center geodetic : 0.00000000,0.00000000,0.0000000 {E-lon(deg),Lat(deg),Alt(km)}
Center cylindric: 0.00000000,0.00000000,0.0000000 {E-lon(deg),Dxy(km),Dz(km)}
Center pole/equ : High-precision EOP model        {East-longitude +}
Center radii    : 6378.1 x 6378.1 x 6356.8 km     {Equator, meridian, pole}    
Target primary  : Earth
Vis. interferer : MOON (R_eq= 1737.400) km        {source: sst_030825_171106_22
Rel. light bend : Sun, EARTH                      {source: sst_030825_171106_22
Rel. lght bnd GM: 1.3271E+11, 3.9860E+05 km^3/s^2                              
Atmos refraction: NO (AIRLESS)
RA format       : HMS
Time format     : CAL 
EOP file        : eop.180221.p180515                                           
EOP coverage    : DATA-BASED 1962-JAN-20 TO 2018-FEB-21. PREDICTS-> 2018-MAY-14
Units conversion: 1 au= 149597870.700 km, c= 299792.458 km/s, 1 day= 86400.0 s 
Table cut-offs 1: Elevation (-90.0deg=NO ),Airmass (>38.000=NO), Daylight (NO )
Table cut-offs 2: Solar elongation (  0.0,180.0=NO ),Local Hour Angle( 0.0=NO )
Table cut-offs 3: RA/DEC angular rate (     0.0=NO )                           
**************************************************************************************
 Date__(UT)__HR:MN     R.A._(ICRF/J2000.0)_DEC            delta      deldot   1-way_LT
**************************************************************************************
$$SOE
 2017-Oct-30 12:00     16 59 55.02 -23 00 01.1 1.57816325504356   0.7820072  13.125184
 2017-Oct-31 12:00     17 04 10.07 -23 05 12.2 1.57861855330556   0.7946197  13.128970
 2017-Nov-01 12:00     17 08 25.44 -23 09 57.6 1.57908124882521   0.8076301  13.132818
